STARLINK-31282          
1 59307U 24056M   26068.50137457  .00000695  00000+0  34778-4 0  9997
2 59307  43.0042 231.9332 0001307 267.9054  92.1648 15.27572077111125
ARCSTONE                
1 64540U 25135N   26068.88991918  .00026427  00000+0  94900-3 0  9995
2 64540  97.4495 185.9194 0004120 166.7863 193.3485 15.28638458 39847
